COSMOS 2251 DEB         
1 38064U 93036BRW 26095.19511170  .00004197  00000+0  92175-3 0  9996
2 38064  74.0207 268.5617 0046057 359.0637   1.0432 14.57217530735171
COSMOS 2251 DEB         
1 38067U 93036BRZ 26092.68840713  .00001642  00000+0  32538-3 0  9997
2 38067  74.0162  62.0683 0070975 183.9038 352.8627 14.61537025641762
COSMOS 2251 DEB         
1 38068U 93036BSA 26087.47442067  .00000556  00000+0  19884-3 0  9991
2 38068  74.0195 113.9319 0026136 183.8605 176.2350 14.36179829681648
COSMOS 2251 DEB         
1 38197U 93036BSM 26089.87027193  .00020840  00000+0  25203-2 0  9998
2 38197  73.9375 143.8942 0115062 351.6520   8.2735 14.78981076873512
COSMOS 2251 DEB         
1 38199U 93036BSP 26089.14773250  .00001352  00000+0  10685-2 0  9997
2 38199  73.9540 245.6761 0368172 151.2147 210.9844 13.64988367624879
COSMOS 2251 DEB         
1 38208U 93036BSY 26095.10234984  .00026910  00000+0  28262-2 0  9994
2 38208  74.0037 212.8592 0005987 289.8052 246.3259 14.89361116728431
COSMOS 2251 DEB         
1 38212U 93036BTC 26092.75082109  .00003986  00000+0  51251-3 0  9990
2 38212  74.0523 218.7571 0093370 256.1890 102.8883 14.78458379829503
COSMOS 2251 DEB         
1 38220U 93036BTL 26094.55216598  .00034249  00000+0  25934-2 0  9994
2 38220  74.0120 199.5416 0002184 265.6985  94.3953 15.02137183730590
COSMOS 2251 DEB         
1 38479U 93036BTP 26087.99513859  .00005367  00000+0  16612-2 0  9992
2 38479  74.0098 347.8932 0081053  73.6907 303.9472 14.39555399662168
COSMOS 2251 DEB         
1 38481U 93036BTR 26094.93849931  .00002047  00000+0  12305-2 0  9997
2 38481  73.9319 171.8333 0227099  89.6824 273.0325 13.95398004606398
COSMOS 2251 DEB         
1 38483U 93036BTT 26089.49909336  .00003384  00000+0  12459-2 0  9995
2 38483  74.2612 178.7699 0114380 252.1139 106.7512 14.29379376650179
COSMOS 2251 DEB         
1 38486U 93036BTW 26093.39648413  .00020876  00000+0  28955-2 0  9991
2 38486  73.9416 345.2254 0031243 111.0767   7.7778 14.77553820770813
COSMOS 2251 DEB         
1 38487U 93036BTX 26094.88465205  .00067307  00000+0  22091-2 0  9998
2 38487  73.9666 154.4192 0026261 293.7664  66.0785 15.30936144685231
COSMOS 2251 DEB         
1 39546U 93036BUC 26090.20400057  .00017948  00000+0  15919-2 0  9998
2 39546  73.9960 277.9291 0039767  51.0573 309.4144 14.95558083660569
COSMOS 2251 DEB         
1 39547U 93036BUD 26087.94275501  .00083175  00000+0  40281-2 0  9995
2 39547  74.0054 158.6364 0011747 290.1620 245.0652 15.18081519656283
COSMOS 2251 DEB         
1 39553U 93036BUK 26094.85546303  .00002037  00000+0  11560-2 0  9997
2 39553  74.0268 133.9961 0207350 244.1715 113.7904 14.00364776772006
